[{"OBJECT_NAME":"STARLINK-30253","OBJECT_ID":"2023-115E","EPOCH":"2026-03-09T04:37:31.564416","MEAN_MOTION":15.27577538,"ECCENTRICITY":8.341e-5,"INCLINATION":42.9995,"RA_OF_ASC_NODE":4.5394,"ARG_OF_PERICENTER":276.6671,"MEAN_ANOMALY":83.4085,"EPHEMERIS_TYPE":0,"CLASSIFICATION_TYPE":"U","NORAD_CAT_ID":57525,"ELEMENT_SET_NO":999,"REV_AT_EPOCH":14227,"BSTAR":5.0811074e-5,"MEAN_MOTION_DOT":1.136e-5,"MEAN_MOTION_DDOT":0},{"OBJECT_NAME":"NUSAT-50 (NANCY ROMAN)","OBJECT_ID":"2024-149AB","EPOCH":"2026-03-09T19:15:16.765632","MEAN_MOTION":15.29713355,"ECCENTRICITY":0.00025229,"INCLINATION":97.3817,"RA_OF_ASC_NODE":150.7693,"ARG_OF_PERICENTER":238.0469,"MEAN_ANOMALY":122.0527,"EPHEMERIS_TYPE":0,"CLASSIFICATION_TYPE":"U","NORAD_CAT_ID":60493,"ELEMENT_SET_NO":999,"REV_AT_EPOCH":8693,"BSTAR":0.0004225155,"MEAN_MOTION_DOT":0.00012094,"MEAN_MOTION_DDOT":0}]
