STARLINK-30253          
1 57525U 23115E   26068.19272644  .00001136  00000+0  50811-4 0  9992
2 57525  42.9995   4.5394 0000834 276.6671  83.4085 15.27577538142273
NUSAT-50 (NANCY ROMAN)  
1 60493U 24149AB  26068.80227738  .00012094  00000+0  42252-3 0  9994
2 60493  97.3817 150.7693 0002523 238.0469 122.0527 15.29713355 86930
